NORAD_CAT_ID,OBJECT_NAME,OBJECT_TYPE,EPOCH,MEAN_MOTION,ECCENTRICITY,INCLINATION,RA_OF_ASC_NODE,ARG_OF_PERICENTER,MEAN_ANOMALY,BSTAR,MEAN_MOTION_DOT,MEAN_MOTION_DDOT,TLE_LINE0,TLE_LINE1,TLE_LINE2,SEMIMAJOR_AXIS,PERIOD,APOGEE,PERIGEE,DECAYED
52313.0,STARLINK-3749,PAYLOAD,2022-10-13 15:55:36,15.08842675,0.0002165999999999,53.2186,269.2765,41.6054,318.5102,0.00016057,2.268e-05,0.0,0 STARLINK-3749,1 52313U 22041BE  22286.66361548  .00002268  00000-0  16057-3 0  9992,2 52313  53.2186 269.2765 0002166  41.6054 318.5102 15.08842675 28212,6917.871999999999,95.437,541.236,538.239,0.0
52313.0,STARLINK-3749,PAYLOAD,2022-10-14 09:24:51,15.08842492,0.0002251,53.2185,266.0056,35.59900000000001,324.5152,0.00028522,4.254e-05,0.0,0 STARLINK-3749,1 52313U 22041BE  22287.39225779  .00004254  00000-0  28522-3 0  9995,2 52313  53.2185 266.0056 0002251  35.5990 324.5152 15.08842492 28326,6917.873000000001,95.437,541.295,538.181,0.0
52313.0,STARLINK-3749,PAYLOAD,2022-10-14 15:46:23,15.08841237,0.0002217,53.2183,264.8159,42.2404,317.8759,0.00013344,1.836e-05,0.0,0 STARLINK-3749,1 52313U 22041BE  22287.65721804  .00001836  00000-0  13344-3 0  9993,2 52313  53.2183 264.8159 0002217  42.2404 317.8759 15.08841237 28369,6917.877,95.437,541.275,538.2080000000002,0.0
52313.0,STARLINK-3749,PAYLOAD,2022-10-15 02:54:04,15.08853896,0.0002106999999999,53.218,262.7339,41.4322,318.6829,0.00029719,4.447e-05,0.0,0 STARLINK-3749,1 52313U 22041BE  22288.12088990  .00004447  00000-0  29719-3 0  9992,2 52313  53.2180 262.7339 0002107  41.4322 318.6829 15.08853896 28430,6917.8380000000025,95.437,541.161,538.245,0.0
52313.0,STARLINK-3749,PAYLOAD,2022-10-15 07:40:14,15.08847943,0.0001996,53.2182,261.8424,42.4051,317.7095,0.00015989,2.258e-05,0.0,0 STARLINK-3749,1 52313U 22041BE  22288.31961188  .00002258  00000-0  15989-3 0  9994,2 52313  53.2182 261.8424 0001996  42.4051 317.7095 15.08847943 28466,6917.856,95.437,541.102,538.34,0.0
52313.0,STARLINK-3749,PAYLOAD,2022-10-15 15:37:10,15.08837966,0.0001986,53.2183,260.3541,44.2212,315.8938,-2.1636e-05,-6.33e-06,0.0,0 STARLINK-3749,1 52313U 22041BE  22288.65081447 -.00000633  00000-0 -21636-4 0  9996,2 52313  53.2183 260.3541 0001986  44.2212 315.8938 15.08837966 28514,6917.887,95.438,541.125,538.378,0.0
52313.0,STARLINK-3749,PAYLOAD,2022-10-16 04:20:14,15.08850496,0.000169,53.2177,257.9767,354.1921,5.9052,0.00015989,2.258e-05,0.0,0 STARLINK-3749,1 52313U 22041BE  22289.18072369  .00002258  00000-0  15989-3 0  9994,2 52313  53.2177 257.9767 0001690 354.1921   5.9052 15.08850496 28596,6917.848000000001,95.437,540.882,538.544,0.0
52313.0,STARLINK-3749,PAYLOAD,2022-10-16 10:41:47,15.08844799,0.0002073,53.2189,256.7865,48.9241,311.193,-2.8081e-05,-7.35e-06,0.0,0 STARLINK-3749,1 52313U 22041BE  22289.44568629 -.00000735  00000-0 -28081-4 0  9990,2 52313  53.2189 256.7865 0002073  48.9241 311.1930 15.08844799 28635,6917.866,95.437,541.165,538.297,0.0
52313.0,STARLINK-3749,PAYLOAD,2022-10-16 15:27:56,15.08840262,0.0002068,53.2187,255.8949,46.3942,313.7222,-6.7364e-05,-1.36e-05,0.0,0 STARLINK-3749,1 52313U 22041BE  22289.64440839 -.00001360  00000-0 -67364-4 0  9996,2 52313  53.2187 255.8949 0002068  46.3942 313.7222 15.08840262 28666,6917.88,95.438,541.175,538.314,0.0
52313.0,STARLINK-3749,PAYLOAD,2022-10-17 07:21:48,15.08844518,0.0002068,53.2178,252.9217,49.8244,310.2929,0.00011715,1.577e-05,0.0,0 STARLINK-3749,1 52313U 22041BE  22290.30680723  .00001577  00000-0  11715-3 0  9995,2 52313  53.2178 252.9217 0002068  49.8244 310.2929 15.08844518 28760,6917.8669999999975,95.437,541.1619999999998,538.3009999999998,0.0
52313.0,STARLINK-3749,PAYLOAD,2022-10-18 02:26:25,15.08846889,0.0002139,53.2176,249.3536,51.6903,308.4281,0.00011298,1.511e-05,0.0,0 STARLINK-3749,1 52313U 22041BE  22291.10168546  .00001511  00000-0  11298-3 0  9992,2 52313  53.2176 249.3536 0002139  51.6903 308.4281 15.08846889 28880,6917.859,95.437,541.2040000000002,538.245,0.0
52313.0,STARLINK-3749,PAYLOAD,2022-10-18 07:12:35,15.08838653,0.0001989,53.2181,248.4625,50.0779,310.0388,-3.8051e-05,-8.94e-06,0.0,0 STARLINK-3749,1 52313U 22041BE  22291.30040827 -.00000894  00000-0 -38051-4 0  9997,2 52313  53.2181 248.4625 0001989  50.0779 310.0388 15.08838653 28912,6917.885,95.438,541.125,538.374,0.0
52313.0,STARLINK-3749,PAYLOAD,2022-10-19 02:17:14,15.08828936,0.0001764,53.2185,244.8917,63.5106,296.6067,6.019e-05,6.7e-06,0.0,0 STARLINK-3749,1 52313U 22041BE  22292.09530149  .00000670  00000-0  60190-4 0  9994,2 52313  53.2185 244.8917 0001764  63.5106 296.6067 15.08828936 29034,6917.9140000000025,95.438,541.0,538.559,0.0
52313.0,STARLINK-3749,PAYLOAD,2022-10-19 07:03:23,15.08835764,0.0001952,53.2179,244.0022,51.06800000000001,309.0486,8.7606e-05,1.106e-05,0.0,0 STARLINK-3749,1 52313U 22041BE  22292.29401747  .00001106  00000-0  87606-4 0  9993,2 52313  53.2179 244.0022 0001952  51.0680 309.0486 15.08835764 29068,6917.893,95.438,541.109,538.408,0.0
52313.0,STARLINK-3749,PAYLOAD,2022-10-19 21:21:51,15.08835364,0.0001918,53.2181,241.3257,53.2966,306.8203,8.266e-05,1.027e-05,0.0,0 STARLINK-3749,1 52313U 22041BE  22292.89017979  .00001027  00000-0  82660-4 0  9996,2 52313  53.2181 241.3257 0001918  53.2966 306.8203 15.08835364 29152,6917.895,95.438,541.086,538.433,0.0
52313.0,STARLINK-3749,PAYLOAD,2022-10-20 06:54:10,15.08845191,0.0001921,53.218,239.5419,51.3733,308.743,0.00033949,5.12e-05,0.0,0 STARLINK-3749,1 52313U 22041BE  22293.28761857  .00005120  00000-0  33949-3 0  9994,2 52313  53.2180 239.5419 0001921  51.3733 308.7430 15.08845191 29214,6917.865,95.437,541.058,538.401,0.0
52313.0,STARLINK-3749,PAYLOAD,2022-10-20 19:37:15,15.08843045,0.0001885,53.2177,237.1632,52.2403,307.876,0.00024379,3.594e-05,0.0,0 STARLINK-3749,1 52313U 22041BE  22293.81753969  .00003594  00000-0  24379-3 0  9998,2 52313  53.2177 237.1632 0001885  52.2403 307.8760 15.08843045 29294,6917.871,95.437,541.04,538.432,0.0
52313.0,STARLINK-3749,PAYLOAD,2022-10-20 21:12:38,15.08836332,0.0001809,53.2181,236.8653,54.8036,305.3126,0.00030628,4.589e-05,0.0,0 STARLINK-3749,1 52313U 22041BE  22293.88378264  .00004589  00000-0  30628-3 0  9995,2 52313  53.2181 236.8653 0001809  54.8036 305.3126 15.08836332 29306,6917.892,95.438,541.008,538.505,0.0
52313.0,STARLINK-3749,PAYLOAD,2022-10-21 03:34:11,15.0883293,0.0001564999999999,53.2183,235.6763,55.1701,304.9438,0.00031992,4.806e-05,0.0,0 STARLINK-3749,1 52313U 22041BE  22294.14874430  .00004806  00000-0  31992-3 0  9998,2 52313  53.2183 235.6763 0001565  55.1701 304.9438 15.08832930 29344,6917.901999999999,95.438,540.85,538.684,0.0
52313.0,STARLINK-3749,PAYLOAD,2022-10-21 05:09:34,15.08839815,0.000179,53.218,235.3786,47.9101,312.2043,0.00011543,1.549e-05,0.0,0 STARLINK-3749,1 52313U 22041BE  22294.21498067  .00001549  00000-0  11543-3 0  9995,2 52313  53.2180 235.3786 0001790  47.9101 312.2043 15.08839815 29350,6917.880999999999,95.438,540.984,538.508,0.0
52313.0,STARLINK-3749,PAYLOAD,2022-10-21 19:28:02,15.08840916,0.0001799,53.2177,232.7022,48.5389,311.5757,8.3555e-05,1.042e-05,0.0,0 STARLINK-3749,1 52313U 22041BE  22294.81114013  .00001042  00000-0  83555-4 0  9998,2 52313  53.2177 232.7022 0001799  48.5389 311.5757 15.08840916 29442,6917.878000000002,95.437,540.987,538.498,0.0
52313.0,STARLINK-3749,PAYLOAD,2022-10-22 05:00:21,15.08826383,0.000198,53.2189,230.9185,32.8979,327.2136,0.00041743,6.359e-05,0.0,0 STARLINK-3749,1 52313U 22041BE  22295.20858706  .00006359  00000-0  41743-3 0  9994,2 52313  53.2189 230.9185 0001980  32.8979 327.2136 15.08826383 29502,6917.922,95.438,541.1569999999998,538.4169999999998,0.0
52313.0,STARLINK-3749,PAYLOAD,2022-10-22 12:57:16,15.08844392,0.0001759,53.2186,229.4314,46.2934,313.8204,8.1211e-05,1.005e-05,0.0,0 STARLINK-3749,1 52313U 22041BE  22295.53977955  .00001005  00000-0  81211-4 0  9996,2 52313  53.2186 229.4314 0001759  46.2934 313.8204 15.08844392 29552,6917.8669999999975,95.437,540.9490000000002,538.515,0.0
52313.0,STARLINK-3749,PAYLOAD,2022-10-22 19:18:49,15.08844901,0.0001756,53.2189,228.2421,45.1852,314.9282,0.00012244,1.661e-05,0.0,0 STARLINK-3749,1 52313U 22041BE  22295.80473808  .00001661  00000-0  12244-3 0  9991,2 52313  53.2189 228.2421 0001756  45.1852 314.9282 15.08844901 29593,6917.865,95.437,540.945,538.516,0.0
52313.0,STARLINK-3749,PAYLOAD,2022-10-23 04:51:07,15.08851083,0.0001719,53.2189,226.4591,46.2428,313.8706,0.00021611,3.154e-05,0.0,0 STARLINK-3749,1 52313U 22041BE  22296.20217370  .00003154  00000-0  21611-3 0  9993,2 52313  53.2189 226.4591 0001719  46.2428 313.8706 15.08851083 29656,6917.847,95.437,540.901,538.5219999999998,0.0
52313.0,STARLINK-3749,PAYLOAD,2022-10-23 19:09:35,15.08847343,0.0001732,53.219,223.7825,49.0761,311.0381,0.000113,1.511e-05,0.0,0 STARLINK-3749,1 52313U 22041BE  22296.79833300  .00001511  00000-0  11300-3 0  9993,2 52313  53.2190 223.7825 0001732  49.0761 311.0381 15.08847343 29747,6917.858,95.437,540.9209999999998,538.525,0.0
52313.0,STARLINK-3749,PAYLOAD,2022-10-24 04:41:54,15.08848971,0.0001862,53.2192,221.9979,47.7713,312.3437,9.0562e-05,1.154e-05,0.0,0 STARLINK-3749,1 52313U 22041BE  22297.19577026  .00001154  00000-0  90562-4 0  9999,2 52313  53.2192 221.9979 0001862  47.7713 312.3437 15.08848971 29806,6917.853,95.437,541.006,538.43,0.0
52313.0,STARLINK-3749,PAYLOAD,2022-10-24 12:38:49,15.08853333,0.0001906,53.2193,220.5115,48.0076,312.1078,0.00011245,1.503e-05,0.0,0 STARLINK-3749,1 52313U 22041BE  22297.52696464  .00001503  00000-0  11245-3 0  9992,2 52313  53.2193 220.5115 0001906  48.0076 312.1078 15.08853333 29851,6917.84,95.437,541.023,538.386,0.0
52313.0,STARLINK-3749,PAYLOAD,2022-10-25 02:57:18,15.08838654,0.0001838,53.2192,217.8363,47.1726,312.942,-8.0375e-05,-1.567e-05,0.0,0 STARLINK-3749,1 52313U 22041BE  22298.12313505 -.00001567  00000-0 -80375-4 0  9994,2 52313  53.2192 217.8363 0001838  47.1726 312.9420 15.08838654 29948,6917.885,95.438,541.021,538.4780000000002,0.0
